[{"OBJECT_NAME":"RAPTOR4","OBJECT_ID":"2024-028B","EPOCH":"2026-03-09T13:25:37.970400","MEAN_MOTION":13.70164328,"ECCENTRICITY":0.0014524,"INCLINATION":39.9901,"RA_OF_ASC_NODE":141.9922,"ARG_OF_PERICENTER":23.3417,"MEAN_ANOMALY":336.7986,"EPHEMERIS_TYPE":0,"CLASSIFICATION_TYPE":"U","NORAD_CAT_ID":58956,"ELEMENT_SET_NO":999,"REV_AT_EPOCH":10338,"BSTAR":6.0683e-5,"MEAN_MOTION_DOT":-2.4e-7,"MEAN_MOTION_DDOT":0},{"OBJECT_NAME":"CZ-6A DEB","OBJECT_ID":"2022-151AGY","EPOCH":"2026-03-08T08:05:37.669920","MEAN_MOTION":13.86680611,"ECCENTRICITY":0.01562137,"INCLINATION":98.8909,"RA_OF_ASC_NODE":22.813,"ARG_OF_PERICENTER":30.5752,"MEAN_ANOMALY":330.4398,"EPHEMERIS_TYPE":0,"CLASSIFICATION_TYPE":"U","NORAD_CAT_ID":56672,"ELEMENT_SET_NO":999,"REV_AT_EPOCH":15025,"BSTAR":0.0004403863,"MEAN_MOTION_DOT":5.23e-6,"MEAN_MOTION_DDOT":0}]
